[{"OBJECT_NAME":"STARLINK-2663","OBJECT_ID":"2021-040R","EPOCH":"2026-03-09T13:58:44.269248","MEAN_MOTION":15.30220923,"ECCENTRICITY":0.0001136,"INCLINATION":53.1599,"RA_OF_ASC_NODE":178.6243,"ARG_OF_PERICENTER":79.1084,"MEAN_ANOMALY":281.0044,"EPHEMERIS_TYPE":0,"CLASSIFICATION_TYPE":"U","NORAD_CAT_ID":48443,"ELEMENT_SET_NO":999,"REV_AT_EPOCH":26666,"BSTAR":0.00046869,"MEAN_MOTION_DOT":0.00013556,"MEAN_MOTION_DDOT":0},{"OBJECT_NAME":"HIBARI","OBJECT_ID":"2021-102F","EPOCH":"2026-03-09T16:55:51.090816","MEAN_MOTION":15.29554512,"ECCENTRICITY":0.00120742,"INCLINATION":97.3381,"RA_OF_ASC_NODE":115.826,"ARG_OF_PERICENTER":186.5211,"MEAN_ANOMALY":173.5875,"EPHEMERIS_TYPE":0,"CLASSIFICATION_TYPE":"U","NORAD_CAT_ID":49400,"ELEMENT_SET_NO":999,"REV_AT_EPOCH":23897,"BSTAR":0.00042758039,"MEAN_MOTION_DOT":0.00012206,"MEAN_MOTION_DDOT":0}]
